{
  "type": "FeatureCollection",
  "features": [
    {
      "type": "Feature",
      "properties": {
        "norad_id": 24876,
        "name": "GPS BIIR-2  (PRN 13)",
        "group": "gnss",
        "lat": 43.20072458744158,
        "lon": 145.10560694214286,
        "alt_km": 19920.3029530191,
        "timestamp": "2025-12-18T07:01:54.830443+00:00",
        "meta_object_name": "GPS BIIR-2  (PRN 13)",
        "meta_object_id": "1997-035A",
        "meta_epoch": "2025-12-17T17:14:35.683584",
        "meta_mean_motion": 2.00563712,
        "meta_eccentricity": 0.00967872,
        "meta_inclination": 55.8976,
        "meta_ra_of_asc_node": 105.6742,
        "meta_arg_of_pericenter": 56.9828,
        "meta_mean_anomaly": 303.9131,
        "meta_ephemeris_type": 0,
        "meta_classification_type": "U",
        "meta_norad_cat_id": 24876,
        "meta_element_set_no": 999,
        "meta_rev_at_epoch": 20831,
        "meta_bstar": 0,
        "meta_mean_motion_dot": -2.3e-07,
        "meta_mean_motion_ddot": 0,
        "tle_line1": "1 24876U 97035A   25351.71846856 -.00000023  00000+0  00000+0 0  9996",
        "tle_line2": "2 24876  55.8976 105.6742 0096787  56.9828 303.9131  2.00563712208319"
      },
      "geometry": {
        "type": "Point",
        "coordinates": [
          145.10560694214286,
          43.20072458744158
        ]
      }
    },
    {
      "type": "Feature",
      "properties": {
        "norad_id": 26360,
        "name": "GPS BIIR-4  (PRN 20)",
        "group": "gnss",
        "lat": 26.288223200314246,
        "lon": -173.56936876248997,
        "alt_km": 20187.704670745345,
        "timestamp": "2025-12-18T07:01:54.830508+00:00",
        "meta_object_name": "GPS BIIR-4  (PRN 20)",
        "meta_object_id": "2000-025A",
        "meta_epoch": "2025-12-17T20:03:48.692736",
        "meta_mean_motion": 2.005674,
        "meta_eccentricity": 0.00388914,
        "meta_inclination": 55.0482,
        "meta_ra_of_asc_node": 26.6317,
        "meta_arg_of_pericenter": 242.4745,
        "meta_mean_anomaly": 295.2802,
        "meta_ephemeris_type": 0,
        "meta_classification_type": "U",
        "meta_norad_cat_id": 26360,
        "meta_element_set_no": 999,
        "meta_rev_at_epoch": 18763,
        "meta_bstar": 0,
        "meta_mean_motion_dot": -7.7e-07,
        "meta_mean_motion_ddot": 0,
        "tle_line1": "1 26360U 00025A   25351.83598024 -.00000077  00000+0  00000+0 0  9992",
        "tle_line2": "2 26360  55.0482  26.6317 0038891 242.4745 295.2802  2.00567400187632"
      },
      "geometry": {
        "type": "Point",
        "coordinates": [
          -173.56936876248997,
          26.288223200314246
        ]
      }
    },
    {
      "type": "Feature",
      "properties": {
        "norad_id": 26407,
        "name": "GPS BIIR-5  (PRN 22)",
        "group": "gnss",
        "lat": -9.527116358906428,
        "lon": -144.41762817893255,
        "alt_km": 19951.168680727427,
        "timestamp": "2025-12-18T07:01:54.830529+00:00",
        "meta_object_name": "GPS BIIR-5  (PRN 22)",
        "meta_object_id": "2000-040A",
        "meta_epoch": "2025-12-17T13:07:08.215968",
        "meta_mean_motion": 2.00568099,
        "meta_eccentricity": 0.0125756,
        "meta_inclination": 54.8897,
        "meta_ra_of_asc_node": 222.3778,
        "meta_arg_of_pericenter": 301.8897,
        "meta_mean_anomaly": 226.5653,
        "meta_ephemeris_type": 0,
        "meta_classification_type": "U",
        "meta_norad_cat_id": 26407,
        "meta_element_set_no": 999,
        "meta_rev_at_epoch": 18630,
        "meta_bstar": 0,
        "meta_mean_motion_dot": 7.1e-07,
        "meta_mean_motion_ddot": 0,
        "tle_line1": "1 26407U 00040A   25351.54662287  .00000071  00000+0  00000+0 0  9995",
        "tle_line2": "2 26407  54.8897 222.3778 0125756 301.8897 226.5653  2.00568099186301"
      },
      "geometry": {
        "type": "Point",
        "coordinates": [
          -144.41762817893255,
          -9.527116358906428
        ]
      }
    },
    {
      "type": "Feature",
      "properties": {
        "norad_id": 27663,
        "name": "GPS BIIR-8  (PRN 16)",
        "group": "gnss",
        "lat": 42.16766938032646,
        "lon": 2.670262771730314,
        "alt_km": 20056.506215800902,
        "timestamp": "2025-12-18T07:01:54.830545+00:00",
        "meta_object_name": "GPS BIIR-8  (PRN 16)",
        "meta_object_id": "2003-005A",
        "meta_epoch": "2025-12-17T15:19:29.390304",
        "meta_mean_motion": 2.00570709,
        "meta_eccentricity": 0.01476333,
        "meta_inclination": 54.9222,
        "meta_ra_of_asc_node": 222.1834,
        "meta_arg_of_pericenter": 51.8674,
        "meta_mean_anomaly": 318.886,
        "meta_ephemeris_type": 0,
        "meta_classification_type": "U",
        "meta_norad_cat_id": 27663,
        "meta_element_set_no": 999,
        "meta_rev_at_epoch": 16767,
        "meta_bstar": 0,
        "meta_mean_motion_dot": 7.2e-07,
        "meta_mean_motion_ddot": 0,
        "tle_line1": "1 27663U 03005A   25351.63853461  .00000072  00000+0  00000+0 0  9991",
        "tle_line2": "2 27663  54.9222 222.1834 0147633  51.8674 318.8860  2.00570709167678"
      },
      "geometry": {
        "type": "Point",
        "coordinates": [
          2.670262771730314,
          42.16766938032646
        ]
      }
    },
    {
      "type": "Feature",
      "properties": {
        "norad_id": 28190,
        "name": "GPS BIIR-11 (PRN 19)",
        "group": "gnss",
        "lat": -52.961484326347836,
        "lon": -145.12574253310538,
        "alt_km": 20308.81731497685,
        "timestamp": "2025-12-18T07:01:54.830559+00:00",
        "meta_object_name": "GPS BIIR-11 (PRN 19)",
        "meta_object_id": "2004-009A",
        "meta_epoch": "2025-12-16T15:39:18.319104",
        "meta_mean_motion": 2.00560719,
        "meta_eccentricity": 0.01083863,
        "meta_inclination": 54.9821,
        "meta_ra_of_asc_node": 283.0612,
        "meta_arg_of_pericenter": 167.7046,
        "meta_mean_anomaly": 9.4896,
        "meta_ephemeris_type": 0,
        "meta_classification_type": "U",
        "meta_norad_cat_id": 28190,
        "meta_element_set_no": 999,
        "meta_rev_at_epoch": 15928,
        "meta_bstar": 0,
        "meta_mean_motion_dot": -6.5e-07,
        "meta_mean_motion_ddot": 0,
        "tle_line1": "1 28190U 04009A   25350.65229536 -.00000065  00000+0  00000+0 0  9996",
        "tle_line2": "2 28190  54.9821 283.0612 0108386 167.7046   9.4896  2.00560719159281"
      },
      "geometry": {
        "type": "Point",
        "coordinates": [
          -145.12574253310538,
          -52.961484326347836
        ]
      }
    },
    {
      "type": "Feature",
      "properties": {
        "norad_id": 28474,
        "name": "GPS BIIR-13 (PRN 02)",
        "group": "gnss",
        "lat": -13.73622797512268,
        "lon": -37.603759476199386,
        "alt_km": 19803.9125315383,
        "timestamp": "2025-12-18T07:01:54.830572+00:00",
        "meta_object_name": "GPS BIIR-13 (PRN 02)",
        "meta_object_id": "2004-045A",
        "meta_epoch": "2025-12-17T13:48:23.319360",
        "meta_mean_motion": 2.00569852,
        "meta_eccentricity": 0.01708441,
        "meta_inclination": 55.2383,
        "meta_ra_of_asc_node": 332.2112,
        "meta_arg_of_pericenter": 309.4586,
        "meta_mean_anomaly": 234.4084,
        "meta_ephemeris_type": 0,
        "meta_classification_type": "U",
        "meta_norad_cat_id": 28474,
        "meta_element_set_no": 999,
        "meta_rev_at_epoch": 15478,
        "meta_bstar": 0,
        "meta_mean_motion_dot": -8.8e-07,
        "meta_mean_motion_ddot": 0,
        "tle_line1": "1 28474U 04045A   25351.57526990 -.00000088  00000+0  00000+0 0  9992",
        "tle_line2": "2 28474  55.2383 332.2112 0170844 309.4586 234.4084  2.00569852154783"
      },
      "geometry": {
        "type": "Point",
        "coordinates": [
          -37.603759476199386,
          -13.73622797512268
        ]
      }
    },
    {
      "type": "Feature",
      "properties": {
        "norad_id": 28874,
        "name": "GPS BIIRM-1 (PRN 17)",
        "group": "gnss",
        "lat": -44.40607830798044,
        "lon": -122.74331113217796,
        "alt_km": 19839.66520985498,
        "timestamp": "2025-12-18T07:01:54.830585+00:00",
        "meta_object_name": "GPS BIIRM-1 (PRN 17)",
        "meta_object_id": "2005-038A",
        "meta_epoch": "2025-12-17T21:14:50.487648",
        "meta_mean_motion": 2.00578159,
        "meta_eccentricity": 0.01314846,
        "meta_inclination": 55.0273,
        "meta_ra_of_asc_node": 280.4937,
        "meta_arg_of_pericenter": 293.6629,
        "meta_mean_anomaly": 73.133,
        "meta_ephemeris_type": 0,
        "meta_classification_type": "U",
        "meta_norad_cat_id": 28874,
        "meta_element_set_no": 999,
        "meta_rev_at_epoch": 14820,
        "meta_bstar": 0,
        "meta_mean_motion_dot": -4.9e-07,
        "meta_mean_motion_ddot": 0,
        "tle_line1": "1 28874U 05038A   25351.88530657 -.00000049  00000+0  00000+0 0  9995",
        "tle_line2": "2 28874  55.0273 280.4937 0131484 293.6629  73.1330  2.00578159148203"
      },
      "geometry": {
        "type": "Point",
        "coordinates": [
          -122.74331113217796,
          -44.40607830798044
        ]
      }
    }
  ]
}